#dV2018 10  8  0  0  0.00000000    8640 U+u   IGS14 FIT TUD 
## 2022  86400.00000000    10.00000000 58399 0.0000000000000
+    1   L47  0  0  0  0  0  0  0  0  0  0  0  0  0  0  0  0                          
+          0  0  0  0  0  0  0  0  0  0  0  0  0  0  0  0  0                          
+          0  0  0  0  0  0  0  0  0  0  0  0  0  0  0  0  0                          
+          0  0  0  0  0  0  0  0  0  0  0  0  0  0  0  0  0                          
+          0  0  0  0  0  0  0  0  0  0  0  0  0  0  0  0  0                          
++         0  0  0  0  0  0  0  0  0  0  0  0  0  0  0  0  0                          
++         0  0  0  0  0  0  0  0  0  0  0  0  0  0  0  0  0                          
++         0  0  0  0  0  0  0  0  0  0  0  0  0  0  0  0  0                          
++         0  0  0  0  0  0  0  0  0  0  0  0  0  0  0  0  0                          
++         0  0  0  0  0  0  0  0  0  0  0  0  0  0  0  0  0                          
%c M  cc GPS ccc cccc cccc cccc cccc ccccc ccccc ccccc ccccc                          
%c cc cc ccc ccc cccc cccc cccc cccc ccccc ccccc ccccc ccccc                          
%f  0.0000000  0.000000000  0.00000000000  0.000000000000000                          
%f  0.0000000  0.000000000  0.00000000000  0.000000000000000                          
%i    0    0    0    0      0      0      0      0         0                          
%i    0    0    0    0      0      0      0      0         0                          
/* Created by: RDOD_AR_WGT                                                            
/* Setup     : SWARMA.18.281_RDOD_AR.inp                                              
/* Executed  : 03-Jun-2021 01:02 UTC, by swarmgen@euclid2.lr.tudelft.nl               
/*                                                                                    
*  2018 10 08 17 36 00.00000000                             
PL47  -170.3672937   567.7226814  6779.5297524 999999.999999
VL47-19948.9360362-73410.9486259  5633.4347578 999999.999999
*  2018 10 08 17 36 10.00000000                             
PL47  -190.3586839   494.2922833  6784.7355737 999999.999999
VL47-20033.4361567-73448.2941398  4778.0991096 999999.999999
*  2018 10 08 17 36 20.00000000                             
PL47  -210.4333457   420.8291997  6789.0857512 999999.999999
VL47-20115.4751656-73476.3198391  3922.1651406 999999.999999
*  2018 10 08 17 36 30.00000000                             
PL47  -230.5888059   347.3427502  6792.5797403 999999.999999
VL47-20195.0292895-73495.0259998  3065.7400610 999999.999999
*  2018 10 08 17 36 40.00000000                             
PL47  -250.8225681   273.8422537  6795.2171034 999999.999999
VL47-20272.0750085-73504.4140622  2208.9311072 999999.999999
*  2018 10 08 17 36 50.00000000                             
PL47  -271.1321121   200.3370272  6796.9975103 999999.999999
VL47-20346.5891059-73504.4866318  1351.8455382 999999.999999
*  2018 10 08 17 37 00.00000000                             
PL47  -291.5148948   126.8363844  6797.9207380 999999.999999
VL47-20418.5486611-73495.2474714   494.5906365 999999.999999
*  2018 10 08 17 37 10.00000000                             
PL47  -311.9683504    53.3496346  6797.9866709 999999.999999
VL47-20487.9310581-73476.7014977  -362.7262960 999999.999999
*  2018 10 08 17 37 20.00000000                             
PL47  -332.4898904   -20.1139183  6797.1953005 999999.999999
VL47-20554.7139912-73448.8547852 -1219.9979423 999999.999999
*  2018 10 08 17 37 30.00000000                             
PL47  -353.0769045   -93.5449771  6795.5467259 999999.999999
VL47-20618.8754852-73411.7145341 -2077.1169724 999999.999999
*  2018 10 08 17 37 40.00000000                             
PL47  -373.7267604  -166.9342523  6793.0411532 999999.999999
VL47-20680.3938756-73365.2891499 -2933.9760445 999999.999999
*  2018 10 08 17 37 50.00000000                             
PL47  -394.4368041  -240.2724636  6789.6788962 999999.999999
VL47-20739.2478474-73309.5881735 -3790.4678076 999999.999999
*  2018 10 08 17 38 00.00000000                             
PL47  -415.2043609  -313.5503404  6785.4603758 999999.999999
VL47-20795.4164540-73244.6222938 -4646.4849116 999999.999999
*  2018 10 08 17 38 10.00000000                             
PL47  -436.0267350  -386.7586238  6780.3861204 999999.999999
VL47-20848.8790986-73170.4034452 -5501.9200267 999999.999999
*  2018 10 08 17 38 20.00000000                             
PL47  -456.9012104  -459.8880673  6774.4567655 999999.999999
VL47-20899.6155670-73086.9447442 -6356.6658756 999999.999999
*  2018 10 08 17 38 30.00000000                             
PL47  -477.8250508  -532.9294381  6767.6730541 999999.999999
VL47-20947.6060199-72994.2605207 -7210.6152700 999999.999999
*  2018 10 08 17 38 40.00000000                             
PL47  -498.7955006  -605.8735183  6760.0358362 999999.999999
VL47-20992.8309907-72892.3663008 -8063.6611458 999999.999999
*  2018 10 08 17 38 50.00000000                             
PL47  -519.8097846  -678.7111063  6751.5460686 999999.999999
VL47-21035.2713794-72781.2787898 -8915.6965866 999999.999999
*  2018 10 08 17 39 00.00000000                             
PL47  -540.8651089  -751.4330174  6742.2048154 999999.999999
VL47-21074.9084519-72661.0158517 -9766.6148367 999999.999999
*  2018 10 08 17 39 10.00000000                             
PL47  -561.9586610  -824.0300858  6732.0132469 999999.999999
VL47-21111.7238258-72531.5965031-10616.3093082 999999.999999
*  2018 10 08 17 39 20.00000000                             
PL47  -583.0876100  -896.4931650  6720.9726402 999999.999999
VL47-21145.6995589-72393.0408484-11464.6735845 999999.999999
*  2018 10 08 17 39 30.00000000                             
PL47  -604.2491076  -968.8131292  6709.0843785 999999.999999
VL47-21176.8179612-72245.3701931-12311.6014189 999999.999999
*  2018 10 08 17 39 40.00000000                             
PL47  -625.4402877 -1040.9808745  6696.3499515 999999.999999
VL47-21205.0618070-72088.6069082-13156.9867286 999999.999999
*  2018 10 08 17 39 50.00000000                             
PL47  -646.6582675 -1112.9873199  6682.7709546 999999.999999
VL47-21230.4143448-71922.7744360-14000.7235905 999999.999999
*  2018 10 08 17 40 00.00000000                             
PL47  -667.9001472 -1184.8234085  6668.3490891 999999.999999
VL47-21252.8590835-71747.8974397-14842.7062449 999999.999999
*  2018 10 08 17 40 10.00000000                             
PL47  -689.1630110 -1256.4801085  6653.0861620 999999.999999
VL47-21272.3799832-71564.0016945-15682.8291150 999999.999999
*  2018 10 08 17 40 20.00000000                             
PL47  -710.4439273 -1327.9484146  6636.9840859 999999.999999
VL47-21288.9613831-71371.1141423-16520.9868356 999999.999999
*  2018 10 08 17 40 30.00000000                             
PL47  -731.7399489 -1399.2193489  6620.0448784 999999.999999
VL47-21302.5880162-71169.2628770-17357.0742837 999999.999999
*  2018 10 08 17 40 40.00000000                             
PL47  -753.0481134 -1470.2839622  6602.2706624 999999.999999
VL47-21313.2450180-70958.4771302-18190.9866036 999999.999999
*  2018 10 08 17 40 50.00000000                             
PL47  -774.3654442 -1541.1333351  6583.6636651 999999.999999
VL47-21320.9179071-70738.7872659-19022.6192252 999999.999999
*  2018 10 08 17 41 00.00000000                             
PL47  -795.6889499 -1611.7585791  6564.2262186 999999.999999
VL47-21325.5927266-70510.2246976-19851.8678735 999999.999999
*  2018 10 08 17 41 10.00000000                             
PL47  -817.0156257 -1682.1508378  6543.9607587 999999.999999
VL47-21327.2556941-70272.8220460-20678.6285710 999999.999999
*  2018 10 08 17 41 20.00000000                             
PL47  -838.3424529 -1752.3012877  6522.8698253 999999.999999
VL47-21325.8935622-70026.6129558-21502.7976348 999999.999999
*  2018 10 08 17 41 30.00000000                             
PL47  -859.6664002 -1822.2011398  6500.9560618 999999.999999
VL47-21321.4936267-69771.6320961-22324.2716745 999999.999999
*  2018 10 08 17 41 40.00000000                             
PL47  -880.9844234 -1891.8416400  6478.2222147 999999.999999
VL47-21314.0433708-69507.9153467-23142.9475960 999999.999999
*  2018 10 08 17 41 50.00000000                             
PL47  -902.2934662 -1961.2140708  6454.6711336 999999.999999
VL47-21303.5308195-69235.4996350-23958.7226175 999999.999999
*  2018 10 08 17 42 00.00000000                             
PL47  -923.5904604 -2030.3097522  6430.3057706 999999.999999
VL47-21289.9444097-68954.4230020-24771.4942904 999999.999999
*  2018 10 08 17 42 10.00000000                             
PL47  -944.8723267 -2099.1200429  6405.1291801 999999.999999
VL47-21273.2730158-68664.7245822-25581.1605179 999999.999999
*  2018 10 08 17 42 20.00000000                             
PL47  -966.1359745 -2167.6363409  6379.1445186 999999.999999
VL47-21253.5059440-68366.4445987-26387.6195671 999999.999999
*  2018 10 08 17 42 30.00000000                             
PL47  -987.3783032 -2235.8500853  6352.3550438 999999.999999
VL47-21230.6328870-68059.6243803-27190.7700836 999999.999999
*  2018 10 08 17 42 40.00000000                             
PL47 -1008.5962017 -2303.7527570  6324.7641149 999999.999999
VL47-21204.6441234-67744.3062700-27990.5111095 999999.999999
*  2018 10 08 17 42 50.00000000                             
PL47 -1029.7865497 -2371.3358797  6296.3751916 999999.999999
VL47-21175.5300338-67420.5338206-28786.7421004 999999.999999
*  2018 10 08 17 43 00.00000000                             
PL47 -1050.9462170 -2438.5910213  6267.1918341 999999.999999
VL47-21143.2816306-67088.3515474-29579.3629260 999999.999999
*  2018 10 08 17 43 10.00000000                             
PL47 -1072.0720654 -2505.5097947  6237.2177024 999999.999999
VL47-21107.8905794-66747.8049174-30368.2738592 999999.999999
EOF                                                         
